EUTELSAT HOTBIRD 13C    
1 33459U 08065A   26199.54103865 -.00000291  00000+0  00000+0 0  9993
2 33459   3.0292  78.8194 0003508  39.5128 322.4572  1.00269814 47662
EXPRESS-AM44            
1 33595U 09007A   26199.40627793 -.00000099  00000+0  00000+0 0  9993
2 33595   3.5421  78.0136 0003629  31.9391 321.4851  1.00271191 52590
NSS-9                   
1 33749U 09008A   26199.56017123  .00000064  00000+0  00000+0 0  9993
2 33749   1.3410  82.3497 0001994  23.6164 215.1278  1.00273469 63833
TELSTAR 11N             
1 34111U 09009A   26199.40107791 -.00000258  00000+0  00000+0 0  9998
2 34111   0.0139 351.3662 0002317 116.5279 295.1383  1.00272383 46552
WGS F2 (USA 204)        
1 34713U 09017A   26199.41988465  .00000060  00000+0  00000+0 0  9991
2 34713   0.0161  61.2544 0000286 124.0711 319.5417  1.00272748 45934
SES-7 (PROTOSTAR 2)     
1 34941U 09027A   26199.59774763 -.00000352  00000+0  00000+0 0  9993
2 34941   0.0168  57.8476 0000302 167.1476  34.8255  1.00270295 62946
MEASAT-3A               
1 35362U 09032A   26199.58239119 -.00000118  00000+0  00000+0 0  9997
2 35362   0.0263 341.7876 0002783 125.6691 198.5757  1.00272167  8341
EWS-G3 (GOES 14)        
1 35491U 09033A   26199.56502894 -.00000367  00000+0  00000+0 0  9998
2 35491   1.7689  82.6527 0002052  39.5207 140.5604  1.00096645  6906
FM-5                    
1 35493U 09034A   26198.96360093 -.00000209  00000+0  00000+0 0  9992
2 35493   0.0358 248.5990 0000724 112.8401 195.0577  1.00271932 46952
TERRESTAR-1             
1 35496U 09035A   26199.52907859 -.00000066  00000+0  00000+0 0  9997
2 35496   5.1962  48.7657 0002469  63.5888 263.4571  1.00273026 62443
ASIASAT 5               
1 35696U 09042A   26199.35708427  .00000000  00000+0  00000+0 0  9995
2 35696   0.0349  79.8404 0001322  29.1669  56.2877  1.00269828 62021
JCSAT-12 (JCSAT-RA)     
1 35755U 09044A   26199.56502894 -.00000335  00000+0  00000+0 0  9998
2 35755   0.0476 261.2993 0000951 287.1080  83.4177  1.00270893 61925
OPTUS D3                
1 35756U 09044B   26199.51070516 -.00000153  00000+0  00000+0 0  9993
2 35756   0.8963 268.1898 0003255 211.6946 156.4121  1.00271894 61885
NIMIQ 5                 
1 35873U 09050A   26199.63802264 -.00000264  00000+0  00000+0 0  9999
2 35873   0.0447 244.0687 0002931 225.5967 343.7515  1.00272823 61667
AMAZONAS 2              
1 35942U 09054A   26199.53679196 -.00000267  00000+0  00000+0 0  9998
2 35942   1.8949  82.6475 0003304  30.1037 304.8271  1.00273236 61491
COMSATBW-1              
1 35943U 09054B   26199.49221552  .00000018  00000+0  00000+0 0  9996
2 35943   0.0643 162.0954 0002781 315.0940  59.3032  1.00271015 61620
NSS-12                  
1 36032U 09058A   26199.56235874  .00000064  00000+0  00000+0 0  9991
2 36032   0.0835 269.3512 0004901 171.4004 115.0425  1.00272101 61235
THOR 6                  
1 36033U 09058B   26199.33706418 -.00000018  00000+0  00000+0 0  9994
2 36033   0.0134  98.8381 0001703  19.8448 297.9460  1.00271853 61312
INTELSAT 14 (IS-14)     
1 36097U 09064A   26199.47080876  .00000000  00000+0  00000+0 0  9999
2 36097   0.0184  46.1925 0002496  71.8948 302.6858  1.00269839 60911
EUTELSAT 36B            
1 36101U 09065A   26199.27552779  .00000104  00000+0  00000+0 0  9995
2 36101   0.5674  81.3393 0005606  33.0503 331.3689  1.00269493 61029
INTELSAT 15 (IS-15)     
1 36106U 09067A   26199.67215862 -.00000192  00000+0  00000+0 0  9993
2 36106   0.0169  48.8346 0002319  67.0382 147.7142  1.00272810 41549
WGS F3 (USA 211)        
1 36108U 09068A   26199.38586442  .00000056  00000+0  00000+0 0  9997
2 36108   0.2978  85.5937 0000577  88.4766 131.0268  1.00271039 46904
DIRECTV 12              
1 36131U 09075A   26199.46850486 -.00000111  00000+0  00000+0 0  9995
2 36131   0.0377 206.0822 0000287  16.0154 140.1053  1.00272112 46861
BEIDOU-2 G1             
1 36287U 10001A   26199.57885652 -.00000289  00000+0  00000+0 0  9999
2 36287   4.3657  60.3035 0001878 288.9685 295.9528  1.00270825 60483
SDO                     
1 36395U 10005A   26199.24005113 -.00000094  00000+0  00000+0 0  9997
2 36395  34.7143  85.8693 0001755  43.0517 151.3467  1.00277384 60372
INTELSAT 16 (IS-16)     
1 36397U 10006A   26199.62891936 -.00000252  00000+0  00000+0 0  9994
2 36397   0.0189  63.4364 0002385  72.4664 310.7238  1.00271780 59971
EWS-G2 (GOES 15)        
1 36411U 10008A   26199.49230219  .00000015  00000+0  00000+0 0  9995
2 36411   1.3619  82.4242 0005355  54.1722  40.1999  1.00269152 59954
ECHOSTAR 14             
1 36499U 10010A   26199.58929469 -.00000007  00000+0  00000+0 0  9998
2 36499   0.0273 276.8010 0001986 184.1101 288.7061  1.00272335 46868
SES-1                   
1 36516U 10016A   26199.53107193 -.00000122  00000+0  00000+0 0  9999
2 36516   0.0556 270.4876 0002514 201.4795 274.5449  1.00271941 59344
ASTRA 3B                
1 36581U 10021A   26199.34183087  .00000128  00000+0  00000+0 0  9997
2 36581   1.5471  83.1719 0004323  24.4366 335.0855  1.00271589 59173
COMSATBW-2              
1 36582U 10021B   26199.55369204  .00000081  00000+0  00000+0 0  9996
2 36582   0.0420 169.3045 0002233 314.5718  25.0273  1.00268524 59279
BEIDOU-2 G3             
1 36590U 10024A   26198.71133366 -.00000144  00000+0  00000+0 0  9994
2 36590   4.5863  61.3773 0006935 359.5938 210.1623  1.00268200 59078
