OBJECT_NAME,OBJECT_ID,EPOCH,MEAN_MOTION,ECCENTRICITY,INCLINATION,RA_OF_ASC_NODE,ARG_OF_PERICENTER,MEAN_ANOMALY,EPHEMERIS_TYPE,CLASSIFICATION_TYPE,NORAD_CAT_ID,ELEMENT_SET_NO,REV_AT_EPOCH,BSTAR,MEAN_MOTION_DOT,MEAN_MOTION_DDOT
EUTELSAT HOTBIRD 13C,2008-065A,2026-07-18T12:59:05.739360,1.00269814,.00035081,3.0292,78.8194,39.5128,322.4572,0,U,33459,999,4766,0,-.291E-5,0
EXPRESS-AM44,2009-007A,2026-07-18T09:45:02.413152,1.00271191,.00036298,3.5421,78.0136,31.9391,321.4851,0,U,33595,999,5259,0,-.99E-6,0
NSS-9,2009-008A,2026-07-18T13:26:38.794272,1.00273469,.00019949,1.3410,82.3497,23.6164,215.1278,0,U,33749,999,6383,0,.64E-6,0
TELSTAR 11N,2009-009A,2026-07-18T09:37:33.131424,1.00272383,.00023172,0.0139,351.3662,116.5279,295.1383,0,U,34111,999,4655,0,-.258E-5,0
WGS F2 (USA 204),2009-017A,2026-07-18T10:04:38.033760,1.00272748,.00002868,0.0161,61.2544,124.0711,319.5417,0,U,34713,999,4593,0,.6E-6,0
SES-7 (PROTOSTAR 2),2009-027A,2026-07-18T14:20:45.395232,1.00270295,.00003027,0.0168,57.8476,167.1476,34.8255,0,U,34941,999,6294,0,-.352E-5,0
MEASAT-3A,2009-032A,2026-07-18T13:58:38.598816,1.00272167,.00027839,0.0263,341.7876,125.6691,198.5757,0,U,35362,999,834,0,-.118E-5,0
EWS-G3 (GOES 14),2009-033A,2026-07-18T13:33:38.500416,1.00096645,.00020524,1.7689,82.6527,39.5207,140.5604,0,U,35491,999,690,0,-.367E-5,0
FM-5,2009-034A,2026-07-17T23:07:35.120352,1.00271932,.00007245,0.0358,248.5990,112.8401,195.0577,0,U,35493,999,4695,0,-.209E-5,0
TERRESTAR-1,2009-035A,2026-07-18T12:41:52.390176,1.00273026,.00024696,5.1962,48.7657,63.5888,263.4571,0,U,35496,999,6244,0,-.66E-6,0
ASIASAT 5,2009-042A,2026-07-18T08:34:12.080928,1.00269828,.00013224,0.0349,79.8404,29.1669,56.2877,0,U,35696,999,6202,0,0,0
JCSAT-12 (JCSAT-RA),2009-044A,2026-07-18T13:33:38.500416,1.00270893,.00009511,0.0476,261.2993,287.1080,83.4177,0,U,35755,999,6192,0,-.335E-5,0
OPTUS D3,2009-044B,2026-07-18T12:15:24.925824,1.00271894,.00032555,0.8963,268.1898,211.6946,156.4121,0,U,35756,999,6188,0,-.153E-5,0
NIMIQ 5,2009-050A,2026-07-18T15:18:45.156096,1.00272823,.00029319,0.0447,244.0687,225.5967,343.7515,0,U,35873,999,6166,0,-.264E-5,0
AMAZONAS 2,2009-054A,2026-07-18T12:52:58.825344,1.00273236,.00033049,1.8949,82.6475,30.1037,304.8271,0,U,35942,999,6149,0,-.267E-5,0
COMSATBW-1,2009-054B,2026-07-18T11:48:47.420928,1.00271015,.00027817,0.0643,162.0954,315.0940,59.3032,0,U,35943,999,6162,0,.18E-6,0
NSS-12,2009-058A,2026-07-18T13:29:47.795136,1.00272101,.00049012,0.0835,269.3512,171.4004,115.0425,0,U,36032,999,6123,0,.64E-6,0
THOR 6,2009-058B,2026-07-18T08:05:22.345152,1.00271853,.00017038,0.0134,98.8381,19.8448,297.9460,0,U,36033,999,6131,0,-.18E-6,0
INTELSAT 14 (IS-14),2009-064A,2026-07-18T11:17:57.876864,1.00269839,.00024967,0.0184,46.1925,71.8948,302.6858,0,U,36097,999,6091,0,0,0
EUTELSAT 36B,2009-065A,2026-07-18T06:36:45.601056,1.00269493,.00056068,0.5674,81.3393,33.0503,331.3689,0,U,36101,999,6102,0,.104E-5,0
INTELSAT 15 (IS-15),2009-067A,2026-07-18T16:07:54.504768,1.00272810,.0002319,0.0169,48.8346,67.0382,147.7142,0,U,36106,999,4154,0,-.192E-5,0
WGS F3 (USA 211),2009-068A,2026-07-18T09:15:38.685888,1.00271039,.00005771,0.2978,85.5937,88.4766,131.0268,0,U,36108,999,4690,0,.56E-6,0
DIRECTV 12,2009-075A,2026-07-18T11:14:38.819904,1.00272112,.00002879,0.0377,206.0822,16.0154,140.1053,0,U,36131,999,4686,0,-.111E-5,0
BEIDOU-2 G1,2010-001A,2026-07-18T13:53:33.203328,1.00270825,.00018788,4.3657,60.3035,288.9685,295.9528,0,U,36287,999,6048,0,-.289E-5,0
SDO,2010-005A,2026-07-18T05:45:40.417632,1.00277384,.00017554,34.7143,85.8693,43.0517,151.3467,0,U,36395,999,6037,0,-.94E-6,0
INTELSAT 16 (IS-16),2010-006A,2026-07-18T15:05:38.632704,1.00271780,.00023852,0.0189,63.4364,72.4664,310.7238,0,U,36397,999,5997,0,-.252E-5,0
EWS-G2 (GOES 15),2010-008A,2026-07-18T11:48:54.909216,1.00269152,.00053552,1.3619,82.4242,54.1722,40.1999,0,U,36411,999,5995,0,.15E-6,0
ECHOSTAR 14,2010-010A,2026-07-18T14:08:35.061216,1.00272335,.00019868,0.0273,276.8010,184.1101,288.7061,0,U,36499,999,4686,0,-.7E-7,0
SES-1,2010-016A,2026-07-18T12:44:44.614752,1.00271941,.00025142,0.0556,270.4876,201.4795,274.5449,0,U,36516,999,5934,0,-.122E-5,0
ASTRA 3B,2010-021A,2026-07-18T08:12:14.187168,1.00271589,.00043239,1.5471,83.1719,24.4366,335.0855,0,U,36581,999,5917,0,.128E-5,0
COMSATBW-2,2010-021B,2026-07-18T13:17:18.992256,1.00268524,.00022336,0.0420,169.3045,314.5718,25.0273,0,U,36582,999,5927,0,.81E-6,0
BEIDOU-2 G3,2010-024A,2026-07-17T17:04:19.228224,1.00268200,.00069352,4.5863,61.3773,359.5938,210.1623,0,U,36590,999,5907,0,-.144E-5,0
